STARLETTE               
1 07646U 75010A   23005.53360835 -.00000130  00000+0  88692-5 0  9991
2 07646  49.8261  32.6022 0205730 225.1124 133.2906 13.82315467420431
LAGEOS 1                
1 08820U 76039A   23005.54248154 -.00000009  00000+0  00000+0 0  9994
2 08820 109.8454 108.2350 0045127 212.0817 127.4362  6.38665004832758
AJISAI (EGS)            
1 16908U 86061A   23005.57858167 -.00000092  00000+0  35485-4 0  9992
2 16908  50.0108  57.5293 0011355 216.2928 308.9263 12.44498314323667
COSMOS 1989 (ETALON 1)  
1 19751U 89001C   23005.43193867 -.00000034  00000+0  00000+0 0  9998
2 19751  64.3581 115.4363 0023953 213.9054  71.9868  2.13156243264537
COSMOS 2024 (ETALON 2)  
1 20026U 89039C   23005.35304358 -.00000071  00000+0  00000+0 0  9997
2 20026  65.5104 353.5383 0018678 218.7949 310.0934  2.13204393261661
LAGEOS 2                
1 22195U 92070B   23005.52404687 -.00000009  00000+0  00000+0 0  9991
2 22195  52.6770 342.1059 0138360 357.1127 172.8520  6.47293489713939
STELLA                  
1 22824U 93061B   23005.58242146 -.00000022  00000+0  10182-4 0  9999
2 22824  98.9483  36.4507 0005424 294.5754 238.0697 14.27396614525210
LARES                   
1 38077U 12006A   23005.23476901 -.00000033  00000+0  32837-4 0  9999
2 38077  69.4963 282.6451 0008491 166.8200 193.3043 12.54931424499221
